NOAA 13                 
1 22739U 93050A   24349.81621121  .00000269  00000+0  16541-3 0  9990
2 22739  98.6333 300.6925 0008384 256.9948 103.0289 14.13407154615766
